{
  "type": "FeatureCollection",
  "features": [
    {
      "type": "Feature",
      "properties": {
        "norad_id": 31430,
        "name": "FENGYUN 1C DEB",
        "group": "fengyun-1c-debris",
        "lat": -6.667997422303959,
        "lon": 51.49924918736122,
        "alt_km": 796.9835195614432,
        "timestamp": "2025-12-13T10:41:26.048593+00:00",
        "meta_object_name": "FENGYUN 1C DEB",
        "meta_object_id": "1999-025BTS",
        "meta_epoch": "2025-12-11T15:38:30.869088",
        "meta_mean_motion": 14.25596186,
        "meta_eccentricity": 0.00269185,
        "meta_inclination": 98.7436,
        "meta_ra_of_asc_node": 48.6801,
        "meta_arg_of_pericenter": 45.6074,
        "meta_mean_anomaly": 107.6578,
        "meta_ephemeris_type": 0,
        "meta_classification_type": "U",
        "meta_norad_cat_id": 31430,
        "meta_element_set_no": 999,
        "meta_rev_at_epoch": 96102,
        "meta_bstar": 0.0014563792,
        "meta_mean_motion_dot": 3.418e-05,
        "meta_mean_motion_ddot": 0,
        "tle_line1": "1 31430U 99025BTS 25345.65174617  .00003418  00000+0  14564-2 0  9999",
        "tle_line2": "2 31430  98.7436  48.6801 0026918  45.6074 107.6578 14.25596186961028"
      },
      "geometry": {
        "type": "Point",
        "coordinates": [
          51.49924918736122,
          -6.667997422303959
        ]
      }
    },
    {
      "type": "Feature",
      "properties": {
        "norad_id": 31431,
        "name": "FENGYUN 1C DEB",
        "group": "fengyun-1c-debris",
        "lat": -9.43811890585455,
        "lon": 54.14733968303455,
        "alt_km": 896.1121783205135,
        "timestamp": "2025-12-13T10:41:26.048603+00:00",
        "meta_object_name": "FENGYUN 1C DEB",
        "meta_object_id": "1999-025BTT",
        "meta_epoch": "2025-12-12T14:58:43.736448",
        "meta_mean_motion": 14.03079257,
        "meta_eccentricity": 0.01332952,
        "meta_inclination": 98.5399,
        "meta_ra_of_asc_node": 234.8076,
        "meta_arg_of_pericenter": 95.6813,
        "meta_mean_anomaly": 265.9571,
        "meta_ephemeris_type": 0,
        "meta_classification_type": "U",
        "meta_norad_cat_id": 31431,
        "meta_element_set_no": 999,
        "meta_rev_at_epoch": 94530,
        "meta_bstar": 0.0022314236,
        "meta_mean_motion_dot": 3.715e-05,
        "meta_mean_motion_ddot": 0,
        "tle_line1": "1 31431U 99025BTT 25346.62411732  .00003715  00000+0  22314-2 0  9992",
        "tle_line2": "2 31431  98.5399 234.8076 0133295  95.6813 265.9571 14.03079257945306"
      },
      "geometry": {
        "type": "Point",
        "coordinates": [
          54.14733968303455,
          -9.43811890585455
        ]
      }
    },
    {
      "type": "Feature",
      "properties": {
        "norad_id": 31433,
        "name": "FENGYUN 1C DEB",
        "group": "fengyun-1c-debris",
        "lat": 7.384050644075298,
        "lon": 71.98599851824217,
        "alt_km": 867.8254019665583,
        "timestamp": "2025-12-13T10:41:26.048613+00:00",
        "meta_object_name": "FENGYUN 1C DEB",
        "meta_object_id": "1999-025BTV",
        "meta_epoch": "2025-12-12T17:17:51.995616",
        "meta_mean_motion": 14.25429587,
        "meta_eccentricity": 0.01003684,
        "meta_inclination": 98.4099,
        "meta_ra_of_asc_node": 250.1924,
        "meta_arg_of_pericenter": 29.4603,
        "meta_mean_anomaly": 25.575,
        "meta_ephemeris_type": 0,
        "meta_classification_type": "U",
        "meta_norad_cat_id": 31433,
        "meta_element_set_no": 999,
        "meta_rev_at_epoch": 95552,
        "meta_bstar": 0.0036723881,
        "meta_mean_motion_dot": 9.105e-05,
        "meta_mean_motion_ddot": 0,
        "tle_line1": "1 31433U 99025BTV 25346.72074069  .00009105  00000+0  36724-2 0  9992",
        "tle_line2": "2 31433  98.4099 250.1924 0100368  29.4603  25.5750 14.25429587955527"
      },
      "geometry": {
        "type": "Point",
        "coordinates": [
          71.98599851824217,
          7.384050644075298
        ]
      }
    },
    {
      "type": "Feature",
      "properties": {
        "norad_id": 31435,
        "name": "FENGYUN 1C DEB",
        "group": "fengyun-1c-debris",
        "lat": -38.801009790085544,
        "lon": 166.68042816502017,
        "alt_km": 804.485941905592,
        "timestamp": "2025-12-13T10:41:26.048624+00:00",
        "meta_object_name": "FENGYUN 1C DEB",
        "meta_object_id": "1999-025BTX",
        "meta_epoch": "2025-12-11T22:31:38.096832",
        "meta_mean_motion": 14.53433535,
        "meta_eccentricity": 0.0148981,
        "meta_inclination": 99.0366,
        "meta_ra_of_asc_node": 157.7043,
        "meta_arg_of_pericenter": 182.4231,
        "meta_mean_anomaly": 177.6259,
        "meta_ephemeris_type": 0,
        "meta_classification_type": "U",
        "meta_norad_cat_id": 31435,
        "meta_element_set_no": 999,
        "meta_rev_at_epoch": 98361,
        "meta_bstar": 0.0004342,
        "meta_mean_motion_dot": 2.034e-05,
        "meta_mean_motion_ddot": 0,
        "tle_line1": "1 31435U 99025BTX 25345.93863538  .00002034  00000+0  43420-3 0  9999",
        "tle_line2": "2 31435  99.0366 157.7043 0148981 182.4231 177.6259 14.53433535983610"
      },
      "geometry": {
        "type": "Point",
        "coordinates": [
          166.68042816502017,
          -38.801009790085544
        ]
      }
    },
    {
      "type": "Feature",
      "properties": {
        "norad_id": 31436,
        "name": "FENGYUN 1C DEB",
        "group": "fengyun-1c-debris",
        "lat": 15.824957362095413,
        "lon": -162.05531276435724,
        "alt_km": 608.4107898625698,
        "timestamp": "2025-12-13T10:41:26.048634+00:00",
        "meta_object_name": "FENGYUN 1C DEB",
        "meta_object_id": "1999-025BTY",
        "meta_epoch": "2025-12-12T13:58:07.957056",
        "meta_mean_motion": 14.93668599,
        "meta_eccentricity": 0.00435185,
        "meta_inclination": 98.8836,
        "meta_ra_of_asc_node": 199.5106,
        "meta_arg_of_pericenter": 243.3961,
        "meta_mean_anomaly": 172.2893,
        "meta_ephemeris_type": 0,
        "meta_classification_type": "U",
        "meta_norad_cat_id": 31436,
        "meta_element_set_no": 999,
        "meta_rev_at_epoch": 96874,
        "meta_bstar": 0.0063486573,
        "meta_mean_motion_dot": 0.00068927,
        "meta_mean_motion_ddot": 0,
        "tle_line1": "1 31436U 99025BTY 25346.58203654  .00068927  00000+0  63487-2 0  9996",
        "tle_line2": "2 31436  98.8836 199.5106 0043518 243.3961 172.2893 14.93668599968747"
      },
      "geometry": {
        "type": "Point",
        "coordinates": [
          -162.05531276435724,
          15.824957362095413
        ]
      }
    },
    {
      "type": "Feature",
      "properties": {
        "norad_id": 31437,
        "name": "FENGYUN 1C DEB",
        "group": "fengyun-1c-debris",
        "lat": 56.376032641773996,
        "lon": -97.89351860051448,
        "alt_km": 750.6768788400868,
        "timestamp": "2025-12-13T10:41:26.048645+00:00",
        "meta_object_name": "FENGYUN 1C DEB",
        "meta_object_id": "1999-025BTZ",
        "meta_epoch": "2025-12-12T04:09:29.717568",
        "meta_mean_motion": 14.42498269,
        "meta_eccentricity": 0.00154684,
        "meta_inclination": 98.8623,
        "meta_ra_of_asc_node": 67.216,
        "meta_arg_of_pericenter": 248.9781,
        "meta_mean_anomaly": 110.9753,
        "meta_ephemeris_type": 0,
        "meta_classification_type": "U",
        "meta_norad_cat_id": 31437,
        "meta_element_set_no": 999,
        "meta_rev_at_epoch": 96502,
        "meta_bstar": 0.0034615208,
        "meta_mean_motion_dot": 0.00011459,
        "meta_mean_motion_ddot": 0,
        "tle_line1": "1 31437U 99025BTZ 25346.17326062  .00011459  00000+0  34615-2 0  9990",
        "tle_line2": "2 31437  98.8623  67.2160 0015468 248.9781 110.9753 14.42498269965028"
      },
      "geometry": {
        "type": "Point",
        "coordinates": [
          -97.89351860051448,
          56.376032641773996
        ]
      }
    },
    {
      "type": "Feature",
      "properties": {
        "norad_id": 31439,
        "name": "FENGYUN 1C DEB",
        "group": "fengyun-1c-debris",
        "lat": 29.33037944938192,
        "lon": 178.50680883380687,
        "alt_km": 808.5296230569484,
        "timestamp": "2025-12-13T10:41:26.048655+00:00",
        "meta_object_name": "FENGYUN 1C DEB",
        "meta_object_id": "1999-025BUB",
        "meta_epoch": "2025-12-12T19:19:53.637024",
        "meta_mean_motion": 13.95579652,
        "meta_eccentricity": 0.01378725,
        "meta_inclination": 98.9169,
        "meta_ra_of_asc_node": 352.8268,
        "meta_arg_of_pericenter": 161.6285,
        "meta_mean_anomaly": 15.3641,
        "meta_ephemeris_type": 0,
        "meta_classification_type": "U",
        "meta_norad_cat_id": 31439,
        "meta_element_set_no": 999,
        "meta_rev_at_epoch": 63233,
        "meta_bstar": 0.0007424398,
        "meta_mean_motion_dot": 1.051e-05,
        "meta_mean_motion_ddot": 0,
        "tle_line1": "1 31439U 99025BUB 25346.80548191  .00001051  00000+0  74244-3 0  9991",
        "tle_line2": "2 31439  98.9169 352.8268 0137872 161.6285  15.3641 13.95579652632334"
      },
      "geometry": {
        "type": "Point",
        "coordinates": [
          178.50680883380687,
          29.33037944938192
        ]
      }
    }
  ]
}